NORAD_CAT_ID,OBJECT_NAME,OBJECT_TYPE,EPOCH,MEAN_MOTION,ECCENTRICITY,INCLINATION,RA_OF_ASC_NODE,ARG_OF_PERICENTER,MEAN_ANOMALY,BSTAR,MEAN_MOTION_DOT,MEAN_MOTION_DDOT,TLE_LINE0,TLE_LINE1,TLE_LINE2,SEMIMAJOR_AXIS,PERIOD,APOGEE,PERIGEE,DECAYED
53253.0,STARLINK-4133,PAYLOAD,2023-01-01 12:33:01,15.08830592,0.0002807,53.2179,15.7811,23.3487,336.7632,1.4459000000000008e-05,-5.8e-07,0.0,0 STARLINK-4133,1 53253U 22086M   23001.52293068 -.00000058  00000-0  14459-4 0  9998,2 53253  53.2179  15.7811 0002807  23.3487 336.7632 15.08830592 25462,6917.909000000002,95.438,541.716,537.832,0.0
53253.0,STARLINK-4133,PAYLOAD,2023-01-02 07:37:38,15.08845685,0.0002968,53.2182,12.2126,26.9413,333.1733,-0.00015366,-2.734e-05,0.0,0 STARLINK-4133,1 53253U 22086M   23002.31780530 -.00002734  00000-0 -15366-3 0  9992,2 53253  53.2182  12.2126 0002968  26.9413 333.1733 15.08845685 25409,6917.863,95.437,541.781,537.675,0.0
53253.0,STARLINK-4133,PAYLOAD,2023-01-02 12:23:47,15.08847612,0.0002881,53.2185,11.3202,25.4276,334.6858,-0.00011301,-2.087e-05,0.0,0 STARLINK-4133,1 53253U 22086M   23002.51652402 -.00002087  00000-0 -11301-3 0  9996,2 53253  53.2185  11.3202 0002881  25.4276 334.6858 15.08847612 25611,6917.857,95.437,541.715,537.729,0.0
53253.0,STARLINK-4133,PAYLOAD,2023-01-02 17:09:56,15.08853449,0.000293,53.2184,10.4284,27.0594,333.0551,-8.1739e-05,-1.59e-05,0.0,0 STARLINK-4133,1 53253U 22086M   23002.71523674 -.00001590  00000-0 -81739-4 0  9997,2 53253  53.2184  10.4284 0002930  27.0594 333.0551 15.08853449 25467,6917.839,95.437,541.731,537.677,0.0
53253.0,STARLINK-4133,PAYLOAD,2023-01-03 10:39:11,15.0884042,0.0002931999999999,53.2183,7.1576,24.9176,335.1957,0.00013065,1.791e-05,0.0,0 STARLINK-4133,1 53253U 22086M   23003.44388454  .00001791  00000-0  13065-3 0  9990,2 53253  53.2183   7.1576 0002932  24.9176 335.1957 15.08840420 25577,6917.879,95.438,541.7719999999998,537.716,0.0
53253.0,STARLINK-4133,PAYLOAD,2023-01-03 17:00:44,15.08832422,0.0002955,53.2184,5.9681,24.874,335.2394,0.00013403,1.845e-05,0.0,0 STARLINK-4133,1 53253U 22086M   23003.70885061  .00001845  00000-0  13403-3 0  9991,2 53253  53.2184   5.9681 0002955  24.8740 335.2394 15.08832422 25616,6917.904,95.438,541.813,537.724,0.0
53253.0,STARLINK-4133,PAYLOAD,2023-01-04 12:05:21,15.08843716,0.0002972,53.2184,2.3991,24.8353,335.2782,0.00017335,2.472e-05,0.0,0 STARLINK-4133,1 53253U 22086M   23004.50372532  .00002472  00000-0  17335-3 0  9999,2 53253  53.2184   2.3991 0002972  24.8353 335.2782 15.08843716 25732,6917.869000000002,95.437,541.79,537.678,0.0
53253.0,STARLINK-4133,PAYLOAD,2023-01-04 16:51:30,15.08848433,0.0002965,53.2177,1.5071,25.786,334.3279,0.00016404,2.324e-05,0.0,0 STARLINK-4133,1 53253U 22086M   23004.70244171  .00002324  00000-0  16404-3 0  9990,2 53253  53.2177   1.5071 0002965  25.7860 334.3279 15.08848433 25944,6917.855,95.437,541.771,537.668,0.0
53253.0,STARLINK-4133,PAYLOAD,2023-01-05 11:56:07,15.08864474,0.0002928,53.2172,357.9389,26.7107,333.4036,0.0003382,5.102e-05,0.0,0 STARLINK-4133,1 53253U 22086M   23005.49730721  .00005102  00000-0  33820-3 0  9996,2 53253  53.2172 357.9389 0002928  26.7107 333.4036 15.08864474 25880,6917.806,95.436,541.696,537.645,0.0
53253.0,STARLINK-4133,PAYLOAD,2023-01-05 16:42:16,15.08858809,0.0003,53.2187,357.0463,24.2957,335.8176,0.00020411,2.963e-05,0.0,0 STARLINK-4133,1 53253U 22086M   23005.69602715  .00002963  00000-0  20411-3 0  9993,2 53253  53.2187 357.0463 0003000  24.2957 335.8176 15.08858809 26098,6917.823,95.436,541.763,537.613,0.0
53253.0,STARLINK-4133,PAYLOAD,2023-01-06 05:25:22,15.08838346,0.0002885,53.2177,354.6681,25.4128,334.7006,-0.00012493,-2.276e-05,0.0,0 STARLINK-4133,1 53253U 22086M   23006.22595401 -.00002276  00000-0 -12493-3 0  9996,2 53253  53.2177 354.6681 0002885  25.4128 334.7006 15.08838346 25997,6917.885,95.438,541.746,537.755,0.0
53253.0,STARLINK-4133,PAYLOAD,2023-01-06 10:11:33,15.08828177,0.0002881,53.2182,353.7766,24.9309,335.1822,-0.00014327,-2.567e-05,0.0,0 STARLINK-4133,1 53253U 22086M   23006.42468924 -.00002567  00000-0 -14327-3 0  9998,2 53253  53.2182 353.7766 0002881  24.9309 335.1822 15.08828177 26025,6917.917,95.438,541.775,537.788,0.0
53253.0,STARLINK-4133,PAYLOAD,2023-01-07 02:05:23,15.08846743,0.0002955,53.2181,350.8032,24.4086,335.7046,-7.573e-05,-1.494e-05,0.0,0 STARLINK-4133,1 53253U 22086M   23007.08707631 -.00001494  00000-0 -75730-4 0  9996,2 53253  53.2181 350.8032 0002955  24.4086 335.7046 15.08846743 26121,6917.86,95.437,541.769,537.681,0.0
53253.0,STARLINK-4133,PAYLOAD,2023-01-07 05:16:09,15.08851184,0.0002918,53.2181,350.2083,25.2371,334.8763,-2.6978e-05,-7.18e-06,0.0,0 STARLINK-4133,1 53253U 22086M   23007.21955239 -.00000718  00000-0 -26978-4 0  9998,2 53253  53.2181 350.2083 0002918  25.2371 334.8763 15.08851184 26329,6917.846,95.437,541.73,537.693,0.0
53253.0,STARLINK-4133,PAYLOAD,2023-01-07 10:02:19,15.08845154,0.0002941,53.2171,349.3159,26.2059,333.9082,0.00023993,3.533e-05,0.0,0 STARLINK-4133,1 53253U 22086M   23007.41827567  .00003533  00000-0  23993-3 0  9991,2 53253  53.2171 349.3159 0002941  26.2059 333.9082 15.08845154 26358,6917.865,95.437,541.764,537.695,0.0
53253.0,STARLINK-4133,PAYLOAD,2023-01-08 01:56:11,15.08834969,0.000288,53.2172,346.3419,26.681,333.43300000000005,0.0002907,4.341e-05,0.0,0 STARLINK-4133,1 53253U 22086M   23008.08068581  .00004341  00000-0  29070-3 0  9998,2 53253  53.2172 346.3419 0002880  26.6810 333.4330 15.08834969 26270,6917.896,95.438,541.753,537.768,0.0
53253.0,STARLINK-4133,PAYLOAD,2023-01-08 09:53:06,15.08846846,0.0002897,53.2172,344.8547,26.6467,333.4673,0.00047396,7.264e-05,0.0,0 STARLINK-4133,1 53253U 22086M   23008.41188258  .00007264  00000-0  47396-3 0  9997,2 53253  53.2172 344.8547 0002897  26.6467 333.4673 15.08846846 26504,6917.859,95.437,541.729,537.72,0.0
53253.0,STARLINK-4133,PAYLOAD,2023-01-08 22:36:11,15.08844098,0.0003066,53.2172,342.475,33.5563,326.5623,0.00027933,4.16e-05,0.0,0 STARLINK-4133,1 53253U 22086M   23008.94180463  .00004160  00000-0  27933-3 0  9992,2 53253  53.2172 342.4750 0003066  33.5563 326.5623 15.08844098 26580,6917.868,95.437,541.854,537.612,0.0
53253.0,STARLINK-4133,PAYLOAD,2023-01-09 09:43:53,15.08854498,0.0002906,53.2179,340.395,27.2959,332.8185,0.00046336,7.097e-05,0.0,0 STARLINK-4133,1 53253U 22086M   23009.40547994  .00007097  00000-0  46336-3 0  9990,2 53253  53.2179 340.3950 0002906  27.2959 332.8185 15.08854498 26653,6917.835999999998,95.437,541.711,537.691,0.0
53253.0,STARLINK-4133,PAYLOAD,2023-01-09 14:30:03,15.0884361,0.0003054,53.2186,339.5006,28.5731,331.5428,0.00014725,2.056e-05,0.0,0 STARLINK-4133,1 53253U 22086M   23009.60420288  .00002056  00000-0  14725-3 0  9995,2 53253  53.2186 339.5006 0003054  28.5731 331.5428 15.08843610 26504,6917.8690000000015,95.437,541.847,537.622,0.0
53253.0,STARLINK-4133,PAYLOAD,2023-01-09 22:26:58,15.08847035,0.0003026,53.2198,338.0134,28.2635,331.852,0.0002164,3.158e-05,0.0,0 STARLINK-4133,1 53253U 22086M   23009.93540163  .00003158  00000-0  21640-3 0  9994,2 53253  53.2198 338.0134 0003026  28.2635 331.8520 15.08847035 26738,6917.859,95.437,541.817,537.631,0.0
53253.0,STARLINK-4133,PAYLOAD,2023-01-10 06:23:54,15.08831387,0.0003042,53.2171,336.5283,27.7615,332.3539,-0.00015715,-2.788e-05,0.0,0 STARLINK-4133,1 53253U 22086M   23010.26660710 -.00002788  00000-0 -15715-3 0  9999,2 53253  53.2171 336.5283 0003042  27.7615 332.3539 15.08831387 26602,6917.906999999998,95.438,541.876,537.6669999999998,0.0
53253.0,STARLINK-4133,PAYLOAD,2023-01-10 14:20:50,15.08834322,0.0002979,53.2175,335.0428,31.177,328.9398,-3.4026e-05,-8.3e-06,0.0,0 STARLINK-4133,1 53253U 22086M   23010.59780821 -.00000830  00000-0 -34026-4 0  9994,2 53253  53.2175 335.0428 0002979  31.1770 328.9398 15.08834322 26831,6917.898,95.438,541.8240000000002,537.702,0.0
53253.0,STARLINK-4133,PAYLOAD,2023-01-10 20:42:23,15.08841297,0.0002853,53.2174,333.8531,28.0696,332.0449,0.00015546,2.187e-05,0.0,0 STARLINK-4133,1 53253U 22086M   23010.86276692  .00002187  00000-0  15546-3 0  9990,2 53253  53.2174 333.8531 0002853  28.0696 332.0449 15.08841297 26870,6917.876,95.437,541.715,537.768,0.0
53253.0,STARLINK-4133,PAYLOAD,2023-01-11 04:39:18,15.08852593,0.0002779,53.2175,332.3666,28.4707,331.6437,0.0008842,0.00013817,0.0,0 STARLINK-4133,1 53253U 22086M   23011.19396500  .00013817  00000-0  88420-3 0  9991,2 53253  53.2175 332.3666 0002779  28.4707 331.6437 15.08852593 26747,6917.842,95.437,541.629,537.784,0.0
53253.0,STARLINK-4133,PAYLOAD,2023-01-11 09:25:28,15.08850704,0.0002753,53.217,331.4748,26.8918,333.2216,0.00078188,0.00012181,0.0,0 STARLINK-4133,1 53253U 22086M   23011.39268523  .00012181  00000-0  78188-3 0  9999,2 53253  53.2170 331.4748 0002753  26.8918 333.2216 15.08850704 26959,6917.848000000001,95.437,541.617,537.808,0.0
53253.0,STARLINK-4133,PAYLOAD,2023-01-12 02:54:42,15.08845575,0.000269,53.2172,328.2046,25.705,334.4075,0.00059627,9.216e-05,0.0,0 STARLINK-4133,1 53253U 22086M   23012.12132941  .00009216  00000-0  59627-3 0  9997,2 53253  53.2172 328.2046 0002690  25.7050 334.4075 15.08845575 26889,6917.863,95.437,541.589,537.867,0.0
53253.0,STARLINK-4133,PAYLOAD,2023-01-12 20:23:58,15.08825082,0.0002474,53.2167,324.9344,39.2788,320.8384,0.00040788,6.207e-05,0.0,0 STARLINK-4133,1 53253U 22086M   23012.84997777  .00006207  00000-0  40788-3 0  9997,2 53253  53.2167 324.9344 0002474  39.2788 320.8384 15.08825082 26990,6917.926,95.438,541.502,538.0790000000002,0.0
53253.0,STARLINK-4133,PAYLOAD,2023-01-13 13:53:12,15.08843077,0.000227,53.2171,321.6627,40.0641,320.0519,0.0010244,0.00016054,0.0,0 STARLINK-4133,1 53253U 22086M   23013.57862075  .00016054  00000-0  10244-2 0  9994,2 53253  53.2171 321.6627 0002270  40.0641 320.0519 15.08843077 27284,6917.871,95.437,541.306,538.1659999999999,0.0
